{
  "type": "FeatureCollection",
  "features": [
    {
      "type": "Feature",
      "properties": {
        "norad_id": 66536,
        "name": "STARLINK-35640",
        "group": "last-30-days",
        "lat": -35.179859969871664,
        "lon": -23.068837782154084,
        "alt_km": 346.6305782452109,
        "timestamp": "2025-12-03T15:48:01.919964+00:00",
        "meta_object_name": "STARLINK-35640",
        "meta_object_id": "2025-265W",
        "meta_epoch": "2025-12-03T06:00:02.999808",
        "meta_mean_motion": 15.75074879,
        "meta_eccentricity": 0.00016803,
        "meta_inclination": 42.9998,
        "meta_ra_of_asc_node": 110.2554,
        "meta_arg_of_pericenter": 269.0175,
        "meta_mean_anomaly": 170.5476,
        "meta_ephemeris_type": 0,
        "meta_classification_type": "U",
        "meta_norad_cat_id": 66536,
        "meta_element_set_no": 999,
        "meta_rev_at_epoch": 345,
        "meta_bstar": -0.00044764895,
        "meta_mean_motion_dot": -0.00068791,
        "meta_mean_motion_ddot": 0,
        "tle_line1": "1 66536U 25265W   25337.25003472 -.00068791  00000+0 -44765-3 0  9990",
        "tle_line2": "2 66536  42.9998 110.2554 0001680 269.0175 170.5476 15.75074879  3457"
      },
      "geometry": {
        "type": "Point",
        "coordinates": [
          -23.068837782154084,
          -35.179859969871664
        ]
      }
    },
    {
      "type": "Feature",
      "properties": {
        "norad_id": 66537,
        "name": "STARLINK-35582",
        "group": "last-30-days",
        "lat": -36.01802676872443,
        "lon": -20.948084779761977,
        "alt_km": 346.634450948658,
        "timestamp": "2025-12-03T15:48:01.919972+00:00",
        "meta_object_name": "STARLINK-35582",
        "meta_object_id": "2025-265X",
        "meta_epoch": "2025-12-03T06:00:02.999808",
        "meta_mean_motion": 15.75082047,
        "meta_eccentricity": 0.00016715,
        "meta_inclination": 43,
        "meta_ra_of_asc_node": 110.2503,
        "meta_arg_of_pericenter": 267.8641,
        "meta_mean_anomaly": 173.6154,
        "meta_ephemeris_type": 0,
        "meta_classification_type": "U",
        "meta_norad_cat_id": 66537,
        "meta_element_set_no": 999,
        "meta_rev_at_epoch": 347,
        "meta_bstar": -0.00047228599,
        "meta_mean_motion_dot": -0.00072541,
        "meta_mean_motion_ddot": 0,
        "tle_line1": "1 66537U 25265X   25337.25003472 -.00072541  00000+0 -47229-3 0  9997",
        "tle_line2": "2 66537  43.0000 110.2503 0001671 267.8641 173.6154 15.75082047  3477"
      },
      "geometry": {
        "type": "Point",
        "coordinates": [
          -20.948084779761977,
          -36.01802676872443
        ]
      }
    },
    {
      "type": "Feature",
      "properties": {
        "norad_id": 66538,
        "name": "STARLINK-35577",
        "group": "last-30-days",
        "lat": -36.81413344625615,
        "lon": -18.79258556095732,
        "alt_km": 346.63490882911447,
        "timestamp": "2025-12-03T15:48:01.919981+00:00",
        "meta_object_name": "STARLINK-35577",
        "meta_object_id": "2025-265Y",
        "meta_epoch": "2025-12-03T06:00:02.999808",
        "meta_mean_motion": 15.75064523,
        "meta_eccentricity": 0.00016859,
        "meta_inclination": 43,
        "meta_ra_of_asc_node": 110.2453,
        "meta_arg_of_pericenter": 268.3359,
        "meta_mean_anomaly": 175.0656,
        "meta_ephemeris_type": 0,
        "meta_classification_type": "U",
        "meta_norad_cat_id": 66538,
        "meta_element_set_no": 999,
        "meta_rev_at_epoch": 347,
        "meta_bstar": -0.00027472488,
        "meta_mean_motion_dot": -0.00042513,
        "meta_mean_motion_ddot": 0,
        "tle_line1": "1 66538U 25265Y   25337.25003472 -.00042513  00000+0 -27472-3 0  9992",
        "tle_line2": "2 66538  43.0000 110.2453 0001685 268.3359 175.0656 15.75064523  3471"
      },
      "geometry": {
        "type": "Point",
        "coordinates": [
          -18.79258556095732,
          -36.81413344625615
        ]
      }
    },
    {
      "type": "Feature",
      "properties": {
        "norad_id": 66539,
        "name": "STARLINK-35697",
        "group": "last-30-days",
        "lat": -37.576033630252134,
        "lon": -16.576055157070876,
        "alt_km": 346.54922068107317,
        "timestamp": "2025-12-03T15:48:01.919990+00:00",
        "meta_object_name": "STARLINK-35697",
        "meta_object_id": "2025-265Z",
        "meta_epoch": "2025-12-03T06:00:02.999808",
        "meta_mean_motion": 15.75036183,
        "meta_eccentricity": 0.00016224,
        "meta_inclination": 43,
        "meta_ra_of_asc_node": 110.2399,
        "meta_arg_of_pericenter": 260.3782,
        "meta_mean_anomaly": 184.9473,
        "meta_ephemeris_type": 0,
        "meta_classification_type": "U",
        "meta_norad_cat_id": 66539,
        "meta_element_set_no": 999,
        "meta_rev_at_epoch": 347,
        "meta_bstar": 0.00020334268,
        "meta_mean_motion_dot": 0.00030868,
        "meta_mean_motion_ddot": 0,
        "tle_line1": "1 66539U 25265Z   25337.25003472  .00030868  00000+0  20334-3 0  9991",
        "tle_line2": "2 66539  43.0000 110.2399 0001622 260.3782 184.9473 15.75036183  3471"
      },
      "geometry": {
        "type": "Point",
        "coordinates": [
          -16.576055157070876,
          -37.576033630252134
        ]
      }
    },
    {
      "type": "Feature",
      "properties": {
        "norad_id": 66540,
        "name": "STARLINK-35818",
        "group": "last-30-days",
        "lat": -38.29100938799905,
        "lon": -14.32757971173106,
        "alt_km": 346.4824118310489,
        "timestamp": "2025-12-03T15:48:01.919999+00:00",
        "meta_object_name": "STARLINK-35818",
        "meta_object_id": "2025-265AA",
        "meta_epoch": "2025-12-03T06:00:02.999808",
        "meta_mean_motion": 15.75043738,
        "meta_eccentricity": 0.00017461,
        "meta_inclination": 42.9997,
        "meta_ra_of_asc_node": 110.2354,
        "meta_arg_of_pericenter": 250.512,
        "meta_mean_anomaly": 196.7325,
        "meta_ephemeris_type": 0,
        "meta_classification_type": "U",
        "meta_norad_cat_id": 66540,
        "meta_element_set_no": 999,
        "meta_rev_at_epoch": 347,
        "meta_bstar": 3.4517306e-05,
        "meta_mean_motion_dot": 4.829e-05,
        "meta_mean_motion_ddot": 0,
        "tle_line1": "1 66540U 25265AA  25337.25003472  .00004829  00000+0  34517-4 0  9990",
        "tle_line2": "2 66540  42.9997 110.2354 0001746 250.5120 196.7325 15.75043738  3472"
      },
      "geometry": {
        "type": "Point",
        "coordinates": [
          -14.32757971173106,
          -38.29100938799905
        ]
      }
    },
    {
      "type": "Feature",
      "properties": {
        "norad_id": 66541,
        "name": "STARLINK-35796",
        "group": "last-30-days",
        "lat": -38.964048270584556,
        "lon": -12.03024890808717,
        "alt_km": 346.41591151296143,
        "timestamp": "2025-12-03T15:48:01.920011+00:00",
        "meta_object_name": "STARLINK-35796",
        "meta_object_id": "2025-265AB",
        "meta_epoch": "2025-12-03T06:00:02.999808",
        "meta_mean_motion": 15.75035788,
        "meta_eccentricity": 0.00018042,
        "meta_inclination": 42.9998,
        "meta_ra_of_asc_node": 110.2306,
        "meta_arg_of_pericenter": 246.5841,
        "meta_mean_anomaly": 202.5738,
        "meta_ephemeris_type": 0,
        "meta_classification_type": "U",
        "meta_norad_cat_id": 66541,
        "meta_element_set_no": 999,
        "meta_rev_at_epoch": 347,
        "meta_bstar": 0.00024470635,
        "meta_mean_motion_dot": 0.00037273,
        "meta_mean_motion_ddot": 0,
        "tle_line1": "1 66541U 25265AB  25337.25003472  .00037273  00000+0  24471-3 0  9997",
        "tle_line2": "2 66541  42.9998 110.2306 0001804 246.5841 202.5738 15.75035788  3471"
      },
      "geometry": {
        "type": "Point",
        "coordinates": [
          -12.03024890808717,
          -38.964048270584556
        ]
      }
    },
    {
      "type": "Feature",
      "properties": {
        "norad_id": 66542,
        "name": "STARLINK-35833",
        "group": "last-30-days",
        "lat": -39.58564878901944,
        "lon": -9.710476822470328,
        "alt_km": 346.52026806553204,
        "timestamp": "2025-12-03T15:48:01.920022+00:00",
        "meta_object_name": "STARLINK-35833",
        "meta_object_id": "2025-265AC",
        "meta_epoch": "2025-12-03T06:00:02.999808",
        "meta_mean_motion": 15.75021525,
        "meta_eccentricity": 0.00018067,
        "meta_inclination": 42.9999,
        "meta_ra_of_asc_node": 110.2266,
        "meta_arg_of_pericenter": 263.8107,
        "meta_mean_anomaly": 187.2747,
        "meta_ephemeris_type": 0,
        "meta_classification_type": "U",
        "meta_norad_cat_id": 66542,
        "meta_element_set_no": 999,
        "meta_rev_at_epoch": 347,
        "meta_bstar": 0.00029818106,
        "meta_mean_motion_dot": 0.00045539,
        "meta_mean_motion_ddot": 0,
        "tle_line1": "1 66542U 25265AC  25337.25003472  .00045539  00000+0  29818-3 0  9992",
        "tle_line2": "2 66542  42.9999 110.2266 0001806 263.8107 187.2747 15.75021525  3470"
      },
      "geometry": {
        "type": "Point",
        "coordinates": [
          -9.710476822470328,
          -39.58564878901944
        ]
      }
    }
  ]
}